NORAD_CAT_ID,OBJECT_NAME,OBJECT_TYPE,EPOCH,MEAN_MOTION,ECCENTRICITY,INCLINATION,RA_OF_ASC_NODE,ARG_OF_PERICENTER,MEAN_ANOMALY,BSTAR,MEAN_MOTION_DOT,MEAN_MOTION_DDOT,TLE_LINE0,TLE_LINE1,TLE_LINE2,SEMIMAJOR_AXIS,PERIOD,APOGEE,PERIGEE,DECAYED
51892.0,STARLINK-3587,PAYLOAD,2024-07-27 02:07:49,15.08841835,0.0001568,53.2169,130.4378,116.2579,243.8574,-7.9639e-05,-1.555e-05,0.0,0 STARLINK-3587,1 51892U 22022AS  24209.08876552 -.00001555  00000-0 -79639-4 0  9997,2 51892  53.2169 130.4378 0001568 116.2579 243.8574 15.08841835134082,6917.875,95.437,540.825,538.655,0.0
51892.0,STARLINK-3587,PAYLOAD,2024-07-28 01:58:37,15.08831454,0.0001277,53.2169,125.9733,102.1676,257.946,2.9037e-05,1.74e-06,0.0,0 STARLINK-3587,1 51892U 22022AS  24210.08237313  .00000174  00000-0  29037-4 0  9996,2 51892  53.2169 125.9733 0001277 102.1676 257.9460 15.08831454134238,6917.907,95.438,540.655,538.888,0.0
51892.0,STARLINK-3587,PAYLOAD,2024-07-28 22:38:38,15.08833511,0.0001111,53.2166,122.1071,95.5105,264.6013,5.5618e-05,5.97e-06,0.0,0 STARLINK-3587,1 51892U 22022AS  24210.94349917  .00000597  00000-0  55618-4 0  9998,2 51892  53.2166 122.1071 0001111  95.5105 264.6013 15.08833511134367,6917.9,95.438,540.534,538.997,0.0
51892.0,STARLINK-3587,PAYLOAD,2024-07-29 11:21:42,15.0885012,0.0001142,53.2168,119.7276,96.2576,263.8546,0.00018141,2.601e-05,0.0,0 STARLINK-3587,1 51892U 22022AS  24211.47340562  .00002601  00000-0  18141-3 0  9991,2 51892  53.2168 119.7276 0001142  96.2576 263.8546 15.08850120134448,6917.849,95.437,540.504,538.924,0.0
51892.0,STARLINK-3587,PAYLOAD,2024-07-29 22:29:25,15.08837387,0.0001979,53.216,117.6435,96.3126,263.8091,0.00014068,1.951e-05,0.0,0 STARLINK-3587,1 51892U 22022AS  24211.93709738  .00001951  00000-0  14068-3 0  9997,2 51892  53.2160 117.6435 0001979  96.3126 263.8091 15.08837387134517,6917.888,95.438,541.122,538.384,0.0
51892.0,STARLINK-3587,PAYLOAD,2024-07-30 00:04:48,15.08830649,0.000115,53.2162,117.3486,96.6448,263.4675,8.8129e-05,1.115e-05,0.0,0 STARLINK-3587,1 51892U 22022AS  24212.00334176  .00001115  00000-0  88129-4 0  9998,2 51892  53.2162 117.3486 0001150  96.6448 263.4675 15.08830649134522,6917.909,95.438,540.57,538.978,0.0
51892.0,STARLINK-3587,PAYLOAD,2024-07-30 11:12:29,15.08845944,0.0001504,53.2163,115.2633,110.2268,249.8886,0.00019047,2.745e-05,0.0,0 STARLINK-3587,1 51892U 22022AS  24212.46700999  .00002745  00000-0  19047-3 0  9990,2 51892  53.2163 115.2633 0001504 110.2268 249.8886 15.08845944134593,6917.862,95.437,540.768,538.687,0.0
51892.0,STARLINK-3587,PAYLOAD,2024-07-30 22:20:11,15.08853622,0.0001525,53.2167,113.1816,108.2736,251.8422,0.0001326,1.824e-05,0.0,0 STARLINK-3587,1 51892U 22022AS  24212.93068636  .00001824  00000-0  13260-3 0  9995,2 51892  53.2167 113.1816 0001525 108.2736 251.8422 15.08853622134666,6917.839,95.437,540.759,538.649,0.0
51892.0,STARLINK-3587,PAYLOAD,2024-07-30 23:55:34,15.0885461,0.0001516,53.2167,112.8846,107.5431,252.5727,0.00014491,2.02e-05,0.0,0 STARLINK-3587,1 51892U 22022AS  24212.99692550  .00002020  00000-0  14491-3 0  9995,2 51892  53.2167 112.8846 0001516 107.5431 252.5727 15.08854610134674,6917.836,95.437,540.749,538.652,0.0
51892.0,STARLINK-3587,PAYLOAD,2024-07-31 20:35:35,15.08838281,0.0001309,53.2176,109.0147,118.2765,241.8359,7.6367e-05,9.28e-06,0.0,0 STARLINK-3587,1 51892U 22022AS  24213.85805546  .00000928  00000-0  76367-4 0  9998,2 51892  53.2176 109.0147 0001309 118.2765 241.8359 15.08838281134808,6917.886,95.438,540.656,538.845,0.0
51892.0,STARLINK-3587,PAYLOAD,2024-07-31 22:10:59,15.08837051,0.0001315,53.2166,108.7171,125.0847,235.0269,6.7498e-05,7.86e-06,0.0,0 STARLINK-3587,1 51892U 22022AS  24213.92429571  .00000786  00000-0  67498-4 0  9993,2 51892  53.2166 108.7171 0001315 125.0847 235.0269 15.08837051134814,6917.889,95.438,540.664,538.845,0.0
51892.0,STARLINK-3587,PAYLOAD,2024-08-01 20:26:22,15.0884294,9.64e-05,53.2135,104.567,69.1648,290.9447,0.00010769,1.427e-05,0.0,0 STARLINK-3587,1 51892U 22022AS  24214.85165077  .00001427  00000-0  10769-3 0  9995,2 51892  53.2135 104.5670 0000964  69.1648 290.9447 15.08842940134950,6917.871,95.437,540.403,539.07,0.0
51892.0,STARLINK-3587,PAYLOAD,2024-08-01 22:01:45,15.08844783,9.83e-05,53.2138,104.268,82.7148,277.3956,0.00011945,1.614e-05,0.0,0 STARLINK-3587,1 51892U 22022AS  24214.91788879  .00001614  00000-0  11945-3 0  9998,2 51892  53.2138 104.2680 0000983  82.7148 277.3956 15.08844783134960,6917.866,95.437,540.411,539.051,0.0
51892.0,STARLINK-3587,PAYLOAD,2024-08-01 23:37:08,15.08857132,0.000114,53.2152,103.958,93.1565,266.9558,5.5612e-05,5.98e-06,0.0,0 STARLINK-3587,1 51892U 22022AS  24214.98412170  .00000598  00000-0  55612-4 0  9993,2 51892  53.2152 103.9580 0001140  93.1565 266.9558 15.08857132134971,6917.828,95.436,540.482,538.904,0.0
51892.0,STARLINK-3587,PAYLOAD,2024-08-02 09:09:26,15.08865934,0.0001165,53.2164,102.1822,104.5173,255.5948,0.00030053,4.502e-05,0.0,0 STARLINK-3587,1 51892U 22022AS  24215.38155512  .00004502  00000-0  30053-3 0  9992,2 51892  53.2164 102.1822 0001165 104.5173 255.5948 15.08865934135037,6917.801,95.436,540.472,538.86,0.0
51892.0,STARLINK-3587,PAYLOAD,2024-08-02 20:17:10,15.08817241,0.0001431,53.2155,100.0976,71.1853,288.9294,-0.00011174,-2.065e-05,0.0,0 STARLINK-3587,1 51892U 22022AS  24215.84526474 -.00002065  00000-0 -11174-3 0  9999,2 51892  53.2155 100.0976 0001431  71.1853 288.9294 15.08817241135104,6917.95,95.439,540.805,538.825,0.0
51892.0,STARLINK-3587,PAYLOAD,2024-08-02 21:52:33,15.08824369,0.0001402,53.2169,99.8033,83.2443,276.8708,-0.00012859,-2.333e-05,0.0,0 STARLINK-3587,1 51892U 22022AS  24215.91149904 -.00002333  00000-0 -12859-3 0  9995,2 51892  53.2169  99.8033 0001402  83.2443 276.8708 15.08824369135111,6917.928,95.439,540.763,538.823,0.0
51892.0,STARLINK-3587,PAYLOAD,2024-08-03 02:38:42,15.08836973,0.0001132,53.2167,98.9139,88.7369,271.3753,0.00010103,1.32e-05,0.0,0 STARLINK-3587,1 51892U 22022AS  24216.11021356  .00001320  00000-0  10103-3 0  9991,2 51892  53.2167  98.9139 0001132  88.7369 271.3753 15.08836973135140,6917.89,95.438,540.538,538.972,0.0
51892.0,STARLINK-3587,PAYLOAD,2024-08-03 09:00:15,15.08840156,0.0001197,53.2165,97.7247,85.7312,274.3817,0.0011191,0.00017567,0.0,0 STARLINK-3587,1 51892U 22022AS  24216.37517616  .00017567  00000-0  11191-2 0  9995,2 51892  53.2165  97.7247 0001197  85.7312 274.3817 15.08840156135187,6917.88,95.438,540.573,538.917,0.0
51892.0,STARLINK-3587,PAYLOAD,2024-08-03 21:43:20,15.08838688,0.0001647,53.2177,95.3516,114.578,245.5384,0.0010817,0.00016969,0.0,0 STARLINK-3587,1 51892U 22022AS  24216.90510245  .00016969  00000-0  10817-2 0  9994,2 51892  53.2177  95.3516 0001647 114.5780 245.5384 15.08838688135268,6917.884,95.438,540.889,538.61,0.0
51892.0,STARLINK-3587,PAYLOAD,2024-08-04 08:51:02,15.08872255,0.0001199,53.2164,93.2633,78.8349,281.2778,0.001718,0.00027184,0.0,0 STARLINK-3587,1 51892U 22022AS  24217.36877580  .00027184  00000-0  17180-2 0  9994,2 51892  53.2164  93.2633 0001199  78.8349 281.2778 15.08872255135336,6917.782,95.436,540.476,538.817,0.0
51892.0,STARLINK-3587,PAYLOAD,2024-08-04 21:34:07,15.08880515,0.0001254,53.2153,90.8847,91.3453,268.7683,0.0036187,0.00057841,0.0,0 STARLINK-3587,1 51892U 22022AS  24217.89869783  .00057841  00000-0  36187-2 0  9999,2 51892  53.2153  90.8847 0001254  91.3453 268.7683 15.08880515135414,6917.757,95.435,540.489,538.754,0.0
51892.0,STARLINK-3587,PAYLOAD,2024-08-05 08:41:48,15.08878035,0.0001388,53.2152,88.8029,87.8995,272.2156,0.0020167,0.00031987,0.0,0 STARLINK-3587,1 51892U 22022AS  24218.36237259  .00031987  00000-0  20167-2 0  9993,2 51892  53.2152  88.8029 0001388  87.8995 272.2156 15.08878035135487,6917.764,95.435,540.589,538.669,0.0
51892.0,STARLINK-3587,PAYLOAD,2024-08-05 21:24:55,15.08812395,0.0001082,53.2152,86.4235,82.9774,277.1341,0.0005684,8.763e-05,0.0,0 STARLINK-3587,1 51892U 22022AS  24218.89230450  .00008763  00000-0  56840-3 0  9991,2 51892  53.2152  86.4235 0001082  82.9774 277.1341 15.08812395135568,6917.965,95.439,540.578,539.081,0.0
51892.0,STARLINK-3587,PAYLOAD,2024-08-05 23:00:18,15.08818693,0.0001227,53.215,86.1265,68.4106,291.7017,0.0013307,0.00020941,0.0,0 STARLINK-3587,1 51892U 22022AS  24218.95854617  .00020941  00000-0  13307-2 0  9997,2 51892  53.2150  86.1265 0001227  68.4106 291.7017 15.08818693135575,6917.946,95.439,540.659,538.962,0.0
51892.0,STARLINK-3587,PAYLOAD,2024-08-06 19:40:19,15.08855128,0.0001368,53.2147,82.2611,68.5484,291.5654,0.0016796,0.00026555,0.0,0 STARLINK-3587,1 51892U 22022AS  24219.81967104  .00026555  00000-0  16796-2 0  9991,2 51892  53.2147  82.2611 0001368  68.5484 291.5654 15.08855128135703,6917.834,95.437,540.646,538.753,0.0
51892.0,STARLINK-3587,PAYLOAD,2024-08-07 00:26:28,15.08865093,0.0001392,53.2148,81.3693,67.0716,293.0423,0.001715,0.0002713,0.0,0 STARLINK-3587,1 51892U 22022AS  24220.01838849  .00027130  00000-0  17150-2 0  9993,2 51892  53.2148  81.3693 0001392  67.0716 293.0423 15.08865093135739,6917.804,95.436,540.632,538.706,0.0
51892.0,STARLINK-3587,PAYLOAD,2024-08-07 21:06:29,15.08850982,0.0001509,53.2152,77.503,63.5509,296.5637,0.00027473,4.088e-05,0.0,0 STARLINK-3587,1 51892U 22022AS  24220.87950452  .00004088  00000-0  27473-3 0  9999,2 51892  53.2152  77.5030 0001509  63.5509 296.5637 15.08850982135867,6917.847,95.437,540.756,538.668,0.0
51892.0,STARLINK-3587,PAYLOAD,2024-08-08 00:17:15,15.08854515,0.0001418,53.2162,76.9062,95.3836,264.7318,0.00035719,5.404e-05,0.0,0 STARLINK-3587,1 51892U 22022AS  24221.01198137  .00005404  00000-0  35719-3 0  9995,2 51892  53.2162  76.9062 0001418  95.3836 264.7318 15.08854515135882,6917.836,95.437,540.682,538.72,0.0
51892.0,STARLINK-3587,PAYLOAD,2024-08-08 20:57:15,15.08850987,0.0001265,53.2161,73.0428,94.593,265.5207,0.00013906,1.927e-05,0.0,0 STARLINK-3587,1 51892U 22022AS  24221.87309979  .00001927  00000-0  13906-3 0  9997,2 51892  53.2161  73.0428 0001265  94.5930 265.5207 15.08850987136012,6917.847,95.437,540.587,538.837,0.0
